JINJUSAT-1B             
1 63210U 25052A   26068.66363707  .00019955  00000+0  68430-3 0  9998
2 63210  97.4113 325.4613 0005550  82.1930 277.9941 15.30194857 54866
STARLINK-34878          
1 65334U 25189M   26068.65479192  .00019312  00000+0  66262-3 0  9991
2 65334  53.1597 206.7521 0001072  50.6921 309.4175 15.30192129 31106
